ZHUHAI-1 02 (CAS-4B)    
1 42759U 17034B   23164.89761559  .00007592  00000+0  38418-3 0  9997
2 42759  43.0137 133.9741 0009447  79.1980 280.9931 15.17369274331131
ZHUHAI-1 01 (CAS-4A)    
1 42761U 17034D   23164.91373970  .00008659  00000+0  43629-3 0  9994
2 42761  43.0133 132.4143 0010171  81.3982 278.8018 15.17375932331133
MAX VALIER SAT          
1 42778U 17036P   23164.32986779  .00022276  00000+0  58316-3 0  9996
2 42778  97.1552 199.2648 0010514 114.0846 246.1501 15.38670885332135
RADFXSAT (FOX-1B)       
1 43017U 17073E   23164.21391655  .00007911  00000+0  54910-3 0  9990
2 43017  97.6318  48.7085 0235237  82.4900 280.2972 14.86029000300595
FOX-1D (AO-92)          
1 43137U 18004AC  23164.44462882  .00033166  00000+0  68422-3 0  9998
2 43137  97.3288 243.5959 0006793 148.0973 212.0689 15.45786648301737
DIWATA-2B               
1 43678U 18084H   23164.83866526  .00001333  00000+0  13253-3 0  9995
2 43678  98.0226 308.7404 0009853 165.0263 195.1249 14.93418353251764
ES'HAIL 2               
1 43700U 18090A   23164.85450962  .00000146  00000+0  00000+0 0  9996
2 43700   0.0140 310.4525 0001710 171.7175 113.1570  1.00273686 16658
FOX-1CLIFF (AO-95)      
1 43770U 18099N   23164.42263287  .00004439  00000+0  36289-3 0  9998
2 43770  97.5708 226.0635 0013041 147.6556 212.5470 14.99797420247046
ITASAT 1                
1 43786U 18099AE  23164.89111956  .00003792  00000+0  31316-3 0  9998
2 43786  97.5749 227.5523 0013727 134.1118 226.1237 14.99483234247155
JY1SAT (JO-97)          
1 43803U 18099AX  23164.11510602  .00005996  00000+0  47565-3 0  9995
2 43803  97.5702 226.7862 0014845 105.4377 254.8488 15.00797752247085
UWE-4                   
1 43880U 18111E   23164.29362990  .00006091  00000+0  46601-3 0  9996
2 43880  97.6324  69.5323 0018003 183.9205 176.1882 15.02138760243784
NEXUS (FO-99)           
1 43937U 19003F   23164.87830035  .00052208  00000+0  84629-3 0  9997
2 43937  97.0855 192.1268 0009209 281.2296  78.7922 15.52567008245534
JAISAT-1                
1 44419U 19038F   23164.36799848  .00021055  00000+0  72229-3 0  9990
2 44419  97.6725 145.9618 0012517 322.2542  37.7819 15.30117775217956
DUCHIFAT-3              
1 44854U 19089C   23164.89227453  .00007808  00000+0  52697-3 0  9992
2 44854  36.9613 110.9773 0010471 285.7579  74.2010 15.06188551192409
CAS-6 (TIANQIN 1)       
1 44881U 19093C   23164.85459621  .00001010  00000+0  13203-3 0  9996
2 44881  97.8617 243.3623 0016198  89.5421 270.7649 14.82530441188309
RS-44 & BREEZE-KM R/B   
1 44909U 19096E   23164.46976050  .00000030  00000+0  75697-4 0  9994
2 44909  82.5216 350.4162 0217160 195.3945 164.0482 12.79721141161688
BY70-2                  
1 45857U 20042B   23164.85331274  .00017283  00000+0  17785-2 0  9996
2 45857  97.9261 244.7395 0008113  28.5260 331.6400 14.90337679159040
SALSAT                  
1 46495U 20068K   23164.60339092  .00004869  00000+0  32237-3 0  9998
2 46495  97.7694 112.5677 0016836 128.5932 231.6807 15.07698502148536
RADFXSAT-2 (AO-109)     
1 47311U 21002C   23164.73488370  .00024099  00000+0  62730-3 0  9991
2 47311  60.6817  71.8111 0012739 177.2397 182.8770 15.38796019133754
UVSQ-SAT                
1 47438U 21006AB  23164.88029524  .00014497  00000+0  59451-3 0  9990
2 47438  97.3849 222.0345 0011473  96.5155 263.7389 15.24294402132145
DIY-1 (ARDUIQUBE)       
1 47963U 21022AH  23164.79405850  .00251542  00000+0  29207-2 0  9990
2 47963  97.4954  73.2354 0002047 130.0560 230.0877 15.60925147122069
XW-3 (CAS-9)            
1 50466U 21131B   23164.83200184  .00000558  00000+0  19537-3 0  9996
2 50466  98.5519 246.3872 0005139 139.2227 220.9346 14.38918228 76876
TEVEL-3                 
1 50988U 22002E   23164.83283393  .00017972  00000+0  72255-3 0  9990
2 50988  97.4338 231.8207 0006803 235.4913 124.5683 15.24955814 78258
TEVEL-8                 
1 50989U 22002F   23164.85143661  .00018656  00000+0  75134-3 0  9995
2 50989  97.4354 231.8981 0006859 234.1141 125.9460 15.24890834 78254
TEVEL-5                 
1 50998U 22002Q   23164.84485855  .00018860  00000+0  73953-3 0  9992
2 50998  97.4333 232.2121 0008116 230.5047 129.5474 15.25774413 78288
TEVEL-6                 
1 50999U 22002R   23164.90896502  .00019022  00000+0  74576-3 0  9998
2 50999  97.4331 232.2705 0008124 230.0674 129.9851 15.25776962 78290
TEVEL-1                 
1 51013U 22002AF  23164.90815429  .00017941  00000+0  72227-3 0  9994
2 51013  97.4333 231.8390 0006751 234.4837 125.5771 15.24912505 78262
TEVEL-7                 
1 51062U 22002CG  23164.85247368  .00018428  00000+0  74183-3 0  9997
2 51062  97.4351 231.8724 0006872 233.6046 126.4558 15.24907747 78258
TEVEL-4                 
1 51063U 22002CH  23164.85843890  .00018464  00000+0  74439-3 0  9994
2 51063  97.4350 231.8622 0006861 233.6672 126.3933 15.24856427 78252
TEVEL-2                 
1 51069U 22002CP  23164.76905069  .00017882  00000+0  71897-3 0  9995
2 51069  97.4334 231.7289 0006785 235.2451 124.8149 15.24955679 78246
GREENCUBE               
1 53106U 22080B   23164.78366827 -.00000003  00000+0  00000+0 0  9992
2 53106  70.1624 320.9023 0008461 186.0509 174.0049  6.42557024 21535
RS29S (SXC3-2110 CYCLO*)
1 53373U 22096D   23164.82185341  .00030675  00000+0  80056-3 0  9990
2 53373  97.4144  71.0785 0003027 113.0613 247.0952 15.38757086 47175
RS32S (SXC3-212 MONITO*)
1 53374U 22096E   23164.78911160  .00027125  00000+0  72794-3 0  9998
2 53374  97.4122  70.9293 0003562 116.0103 244.1509 15.37920033 47163
RS34S (SXC3-218 KUZBAS*)
1 53375U 22096F   23164.80590430  .00022265  00000+0  63640-3 0  9995
2 53375  97.4150  70.6461 0003371 112.6106 247.5495 15.35996344 47147
RS23S (SXC3-21 UTMN)    
1 53376U 22096G   23164.76443428  .00024148  00000+0  67847-3 0  9990
2 53376  97.4145  70.6947 0003103 111.6529 248.5046 15.36518877 47147
RS28S (SXC3-214 MIET-A*)
1 53377U 22096H   23164.81476295  .00019863  00000+0  57579-3 0  9994
2 53377  97.4155  70.6417 0003339 111.9127 248.2472 15.35578759 47143
RS26S (KAI-1)           
1 53378U 22096J   23164.91569929  .00017194  00000+0  52177-3 0  9997
2 53378  97.4170  70.5224 0003183 109.1756 250.9831 15.34163607 47140
RS19S (SXC3-219 ISOI)   
1 53381U 22096M   23164.82944691  .00023259  00000+0  65604-3 0  9992
2 53381  97.4145  70.9085 0005452  84.0350 276.1515 15.36394532 47163
RS21S (CUBESX-HSE-2)    
1 53383U 22096P   23164.80320787  .00022556  00000+0  62752-3 0  9996
2 53383  97.4149  70.9547 0005991  83.4926 276.7000 15.36826883 47166
RS30S (SXC3-217 SIREN)  
1 53384U 22096Q   23164.76641451  .00019304  00000+0  56394-3 0  9998
2 53384  97.4160  70.7118 0005872  80.2797 279.9110 15.35329458 47141
RS20S (GEOSCAN-EDELVEIS)
1 53385U 22096R   23164.79172871  .00024068  00000+0  59766-3 0  9996
2 53385  97.4137  71.5584 0006167  82.4953 277.6994 15.40314444 47238
RS33S (SXC3-215 VIZARD) 
1 53386U 22096S   23164.77941034  .00040173  00000+0  88187-3 0  9994
2 53386  97.4133  72.1809 0006759  82.4959 277.7056 15.43914795 47266
CAS-5A (FO-118)         
1 54684U 22167C   23164.90380675  .00010219  00000+0  56594-3 0  9993
2 54684  97.5616 302.5039 0012887 351.8783   8.2238 15.13947339 28183
